H1 CPF 01  gfz 2021 05 27 00  6471 terrasarx 
H2 0702601  6201 31698    2021 05 27 00 59 42 2021 06 01 00 00 42   120 1 1  0 0 0
H9
10 0 59362  16542.000000  0    3974955.336   2280334.493   5133693.059
10 0 59362  16662.000000  0    4628142.902   2398178.825   4494569.650
10 0 59362  16782.000000  0    5202055.413   2463375.749   3776343.846
10 0 59362  16902.000000  0    5685719.271   2476257.295   2991637.639
10 0 59362  17022.000000  0    6069758.941   2438251.894   2154255.466
10 0 59362  17142.000000  0    6346587.213   2351832.461   1278940.395
10 0 59362  17262.000000  0    6510562.319   2220441.122    381108.338
10 0 59362  17382.000000  0    6558106.016   2048393.500   -523431.859
10 0 59362  17502.000000  0    6487778.607   1840764.780  -1418766.330
10 0 59362  17622.000000  0    6300312.430   1603260.419  -2289162.497
10 0 59362  17742.000000  0    5998603.834   1342075.066  -3119353.219
10 0 59362  17862.000000  0    5587659.182   1063742.666  -3894809.513
10 0 59362  17982.000000  0    5074499.841    774982.663  -4601995.839
10 0 59362  18102.000000  0    4468028.946    482546.398  -5228602.793
10 0 59362  18222.000000  0    3778865.737    193066.946  -5763753.824
10 0 59362  18342.000000  0    3019150.782    -87083.899  -6198184.735
10 0 59362  18462.000000  0    2202325.225   -351929.150  -6524393.532
10 0 59362  18582.000000  0    1342890.758   -596008.435  -6736757.808
10 0 59362  18702.000000  0     456154.134   -814485.899  -6831622.906
10 0 59362  18822.000000  0    -442042.390  -1003241.971  -6807357.559
10 0 59362  18942.000000  0   -1335597.106  -1158948.240  -6664378.118
10 0 59362  19062.000000  0   -2208430.923  -1279124.803  -6405142.906
10 0 59362  19182.000000  0   -3044770.508  -1362178.949  -6034113.424
10 0 59362  19302.000000  0   -3829427.035  -1407424.995  -5557685.987
10 0 59362  19422.000000  0   -4548071.573  -1415085.399  -4984093.681
10 0 59362  19542.000000  0   -5187499.855  -1386272.115  -4323275.097
10 0 59362  19662.000000  0   -5735880.944  -1322948.747  -3586713.130
10 0 59362  19782.000000  0   -6182986.278  -1227874.039  -2787244.388
10 0 59362  19902.000000  0   -6520392.297  -1104527.233  -1938840.544
10 0 59362  20022.000000  0   -6741651.349   -957016.860  -1056365.890
10 0 59362  20142.000000  0   -6842426.970   -789974.953   -155314.459
10 0 59362  20262.000000  0   -6820587.536   -608437.758    748468.332
10 0 59362  20382.000000  0   -6676256.159   -417717.862   1639071.756
10 0 59362  20502.000000  0   -6411815.524   -223270.705   2500809.095
10 0 59362  20622.000000  0   -6031866.834    -30558.106   3318502.862
10 0 59362  20742.000000  0   -5543143.578    155087.442   4077759.773
10 0 59362  20862.000000  0   -4954382.881    328593.614   4765228.635
10 0 59362  20982.000000  0   -4276158.732    485271.222   5368835.906
10 0 59362  21102.000000  0   -3520682.565    620927.088   5877995.430
10 0 59362  21222.000000  0   -2701574.518    731963.343   6283790.640
10 0 59362  21342.000000  0   -1833610.703    815461.226   6579125.430
10 0 59362  21462.000000  0    -932451.093    869249.089   6758842.502
10 0 59362  21582.000000  0     -14354.630    891952.154   6819806.630
10 0 59362  21702.000000  0     904113.585    883023.406   6760955.301
10 0 59362  21822.000000  0    1806379.829    842755.744   6583316.073
10 0 59362  21942.000000  0    2676159.636    772274.884   6289989.943
10 0 59362  22062.000000  0    3497751.823    673512.890   5886101.461
10 0 59362  22182.000000  0    4256324.569    549162.919   5378714.233
10 0 59362  22302.000000  0    4938186.960    402615.826   4776713.389
10 0 59362  22422.000000  0    5531042.954    237878.862   4090656.649
10 0 59362  22542.000000  0    6024223.077     59479.889   3332593.433
10 0 59362  22662.000000  0    6408887.108   -127641.312   2515854.170
10 0 59362  22782.000000  0    6678191.641   -318253.758   1654813.772
10 0 59362  22902.000000  0    6827420.236   -506965.001    764635.198
10 0 59362  23022.000000  0    6854072.621   -688354.476   -139004.280
10 0 59362  23142.000000  0    6757909.148   -857109.291  -1040198.610
10 0 59362  23262.000000  0    6540948.245  -1008158.266  -1923101.903
10 0 59362  23382.000000  0    6207418.863  -1136800.418  -2772215.060
10 0 59362  23502.000000  0    5763668.876  -1238824.952  -3572663.082
10 0 59362  23622.000000  0    5218032.965  -1310619.544  -4310457.790
10 0 59362  23742.000000  0    4580663.857  -1349264.073  -4972740.460
10 0 59362  23862.000000  0    3863332.398  -1352608.622  -5548000.786
10 0 59362  23982.000000  0    3079200.216  -1319334.574  -6026268.791
10 0 59362  24102.000000  0    2242571.595  -1248996.642  -6399276.542
10 0 59362  24222.000000  0    1368630.116  -1142044.945  -6660590.163
10 0 59362  24342.000000  0     473163.751   -999828.664  -6805710.150
10 0 59362  24462.000000  0    -427716.442   -824580.681  -6832140.615
10 0 59362  24582.000000  0   -1317859.759   -619383.003  -6739427.068
10 0 59362  24702.000000  0   -2181358.923   -388113.720  -6529163.752
10 0 59362  24822.000000  0   -3002828.033   -135375.932  -6204967.966
10 0 59362  24942.000000  0   -3767670.525    133589.752  -5772424.649
10 0 59362  25062.000000  0   -4462337.479    413008.846  -5239001.043
10 0 59362  25182.000000  0   -5074569.592    696690.360  -4613928.559
10 0 59362  25302.000000  0   -5593620.045    978156.770  -3908055.633
10 0 59362  25422.000000  0   -6010453.390   1250785.147  -3133669.037
10 0 59362  25542.000000  0   -6317914.438   1507955.178  -2304286.750
10 0 59362  25662.000000  0   -6510863.705   1743200.765  -1434425.419
10 0 59362  25782.000000  0   -6586275.815   1950362.602   -539345.660
10 0 59362  25902.000000  0   -6543296.272   2123736.724    365221.097
10 0 59362  26022.000000  0   -6383254.058   2258215.295   1263356.423
10 0 59362  26142.000000  0   -6109630.788   2349417.091   2139243.347
10 0 59362  26262.000000  0   -5727985.938   2393803.452   2977454.184
10 0 59362  26382.000000  0   -5245840.528   2388776.006   3763230.375
10 0 59362  26502.000000  0   -4672521.687   2332753.674   4482748.323
10 0 59362  26622.000000  0   -4018973.464   2225228.053   5123364.415
10 0 59362  26742.000000  0   -3297539.900   2066795.993   5673836.314
10 0 59362  26862.000000  0   -2521724.312   1859169.304   6124518.158
10 0 59362  26982.000000  0   -1705928.875   1605160.288   6467525.061
10 0 59362  27102.000000  0    -865181.904   1308643.753   6696864.538
10 0 59362  27222.000000  0     -14859.029    974497.041   6808533.761
10 0 59362  27342.000000  0     829597.302    608519.088   6800584.672
10 0 59362  27462.000000  0    1652957.095    217329.829   6673155.653
10 0 59362  27582.000000  0    2440476.095   -191748.711   6428469.582
10 0 59362  27702.000000  0    3178159.569   -610828.652   6070798.786
10 0 59362  27822.000000  0    3853013.200  -1031606.826   5606395.294
10 0 59362  27942.000000  0    4453275.886  -1445528.053   5043387.123
10 0 59362  28062.000000  0    4968629.854  -1843958.082   4391642.018
10 0 59362  28182.000000  0    5390386.174  -2218362.272   3662600.158
10 0 59362  28302.000000  0    5711640.636  -2560487.478   2869075.604
10 0 59362  28422.000000  0    5927394.074  -2862542.433   2025030.124
10 0 59362  28542.000000  0    6034636.001  -3117371.819   1145325.239
10 0 59362  28662.000000  0    6032389.998  -3318620.921    245454.622
10 0 59362  28782.000000  0    5921716.527  -3460884.813   -658736.820
10 0 59362  28902.000000  0    5705675.677  -3539839.548  -1551341.408
10 0 59362  29022.000000  0    5389247.445  -3552350.098  -2416677.536
10 0 59362  29142.000000  0    4979215.375  -3496554.389  -3239571.108
10 0 59362  29262.000000  0    4484015.630  -3371920.979  -4005625.611
10 0 59362  29382.000000  0    3913555.732  -3179279.571  -4701474.092
10 0 59362  29502.000000  0    3279007.804  -2920823.087  -5315008.991
10 0 59362  29622.000000  0    2592582.696  -2600082.319  -5835584.481
10 0 59362  29742.000000  0    1867291.710  -2221876.211  -6254190.695
10 0 59362  29862.000000  0    1116698.741  -1792237.271  -6563600.452
10 0 59362  29982.000000  0     354666.569  -1318312.189  -6758483.473
10 0 59362  30102.000000  0    -404895.824   -808242.573  -6835487.933
10 0 59362  30222.000000  0   -1148281.424   -271026.999  -6793291.021
10 0 59362  30342.000000  0   -1862226.818    283634.143  -6632619.084
10 0 59362  30462.000000  0   -2534143.385    845509.390  -6356235.631
10 0 59362  30582.000000  0   -3152334.299   1404019.830  -5968899.024
10 0 59362  30702.000000  0   -3706195.915   1948433.432  -5477290.057
10 0 59362  30822.000000  0   -4186402.029   2468067.901  -4889908.712
10 0 59362  30942.000000  0   -4585066.045   2952499.143  -4216937.891
10 0 59362  31062.000000  0   -4895876.745   3391769.879  -3470076.574
10 0 59362  31182.000000  0   -5114206.343   3776595.480  -2662345.680
10 0 59362  31302.000000  0   -5237187.251   4098562.441  -1807865.814
10 0 59362  31422.000000  0   -5263755.318   4350313.685   -921612.072
10 0 59362  31542.000000  0   -5194658.050   4525716.642    -19148.852
10 0 59362  31662.000000  0   -5032426.086   4620009.601    883649.744
10 0 59362  31782.000000  0   -4781307.681   4629920.457   1770888.504
10 0 59362  31902.000000  0   -4447167.851   4553755.201   2626940.378
10 0 59362  32022.000000  0   -4037354.638   4391454.873   3436729.966
10 0 59362  32142.000000  0   -3560536.853   4144618.903   4186005.353
10 0 59362  32262.000000  0   -3026518.189   3816494.500   4861592.652
10 0 59362  32382.000000  0   -2446031.660   3411932.826   5451629.228
10 0 59362  32502.000000  0   -1830519.008   2937312.980   5945770.195
10 0 59362  32622.000000  0   -1191900.808   2400436.144   6335365.367
10 0 59362  32742.000000  0    -542342.646   1810391.895   6613603.491
10 0 59362  32862.000000  0     105976.118   1177401.439   6775624.689
10 0 59362  32982.000000  0     741090.657    512638.633   6818600.590
99
